TSELINA-D_L_00002001-01
1 67637U 26660FK  26070.40770833  .00000000  00000+0  00000-0 0  9995
2 67637  81.2000   0.0000 0000000   0.0000   0.0000 14.73473854    19
